start=new Date('2023-01-19T00:00:00.000Z').valueOf();
sats=[{"TLE_LINE1":"1 52701U 22053AX  23018.86494550  .00002951  00000-0  20341-3 0  9992","MEAN_MOTION":"15.08846965","DECAY_DATE":null,"REF_FRAME":"TEME","OBJECT_ID":"2022-053AX","PERIOD":"95.437","MEAN_ANOMALY":"292.1007","SITE":"AFETR","MEAN_MOTION_DDOT":"0.0000000000000","ARG_OF_PERICENTER":"68.0153","FILE":"3754254","EPHEMERIS_TYPE":"0","RA_OF_ASC_NODE":"237.9414","MEAN_MOTION_DOT":"0.00002951","LAUNCH_DATE":"2022-05-18","EPOCH":"2023-01-18T20:45:31.291200","SEMIMAJOR_AXIS":"6917.859","NORAD_CAT_ID":"52701","OBJECT_NAME":"STARLINK-4003","ECCENTRICITY":"0.00015870","TLE_LINE2":"2 52701  53.2141 237.9414 0001587  68.0153 292.1007 15.08846965 38337","MEAN_ELEMENT_THEORY":"SGP4","CLASSIFICATION_TYPE":"U","GP_ID":"223456470","RCS_SIZE":"LARGE","REV_AT_EPOCH":"3833","COUNTRY_CODE":"US","INCLINATION":"53.2141","TIME_SYSTEM":"UTC","ELEMENT_SET_NO":"999","APOAPSIS":"540.822","PERIAPSIS":"538.626","OBJECT_TYPE":"PAYLOAD","CENTER_NAME":"EARTH","BSTAR":"0.00020341000000"},{"LAUNCH_DATE":"2022-05-18","EPOCH":"2023-01-18T21:24:39.536928","SEMIMAJOR_AXIS":"6917.813","NORAD_CAT_ID":"52702","OBJECT_NAME":"STARLINK-4033","MEAN_ELEMENT_THEORY":"SGP4","TLE_LINE2":"2 52702  53.2139 252.8175 0001469  88.5819 271.5341 15.08861906 38110","ECCENTRICITY":"0.00014690","REV_AT_EPOCH":"3811","GP_ID":"223455719","CLASSIFICATION_TYPE":"U","RCS_SIZE":"LARGE","COUNTRY_CODE":"US","INCLINATION":"53.2139","ELEMENT_SET_NO":"999","TIME_SYSTEM":"UTC","APOAPSIS":"540.695","BSTAR":"0.00082302000000","CENTER_NAME":"EARTH","OBJECT_TYPE":"PAYLOAD","PERIAPSIS":"538.662","TLE_LINE1":"1 52702U 22053AY  23018.89212427  .00012842  00000-0  82302-3 0  9992","DECAY_DATE":null,"REF_FRAME":"TEME","MEAN_MOTION":"15.08861906","OBJECT_ID":"2022-053AY","PERIOD":"95.436","MEAN_ANOMALY":"271.5341","SITE":"AFETR","MEAN_MOTION_DDOT":"0.0000000000000","FILE":"3754254","ARG_OF_PERICENTER":"88.5819","RA_OF_ASC_NODE":"252.8175","EPHEMERIS_TYPE":"0","MEAN_MOTION_DOT":"0.00012842"},{"MEAN_ANOMALY":"294.4020","SITE":"AFETR","PERIOD":"95.437","OBJECT_ID":"2022-053AZ","TLE_LINE1":"1 52703U 22053AZ  23018.92014975  .00005638  00000-0  37192-3 0  9997","MEAN_MOTION":"15.08850334","REF_FRAME":"TEME","DECAY_DATE":null,"MEAN_MOTION_DOT":"0.00005638","EPHEMERIS_TYPE":"0","RA_OF_ASC_NODE":"237.6895","ARG_OF_PERICENTER":"65.7163","FILE":"3754254","MEAN_MOTION_DDOT":"0.0000000000000","GP_ID":"223455969","RCS_SIZE":"LARGE","CLASSIFICATION_TYPE":"U","REV_AT_EPOCH":"3706","COUNTRY_CODE":"US","NORAD_CAT_ID":"52703","OBJECT_NAME":"STARLINK-4020","ECCENTRICITY":"0.00018280","MEAN_ELEMENT_THEORY":"SGP4","TLE_LINE2":"2 52703  53.2142 237.6895 0001828  65.7163 294.4020 15.08850334 37067","EPOCH":"2023-01-18T22:05:00.938400","SEMIMAJOR_AXIS":"6917.849","LAUNCH_DATE":"2022-05-18","PERIAPSIS":"538.449","OBJECT_TYPE":"PAYLOAD","CENTER_NAME":"EARTH","BSTAR":"0.00037192000000","APOAPSIS":"540.978","INCLINATION":"53.2142","TIME_SYSTEM":"UTC","ELEMENT_SET_NO":"999"},{"MEAN_MOTION_DOT":"0.00005595","RA_OF_ASC_NODE":"237.9244","EPHEMERIS_TYPE":"0","ARG_OF_PERICENTER":"59.2264","FILE":"3754107","MEAN_MOTION_DDOT":"0.0000000000000","SITE":"AFETR","MEAN_ANOMALY":"300.8909","PERIOD":"95.437","OBJECT_ID":"2022-053BA","MEAN_MOTION":"15.08847798","REF_FRAME":"TEME","DECAY_DATE":null,"TLE_LINE1":"1 52704U 22053BA  23018.86863259  .00005595  00000-0  36925-3 0  9993","PERIAPSIS":"538.451","OBJECT_TYPE":"PAYLOAD","CENTER_NAME":"EARTH","BSTAR":"0.00036925000000","APOAPSIS":"540.992","TIME_SYSTEM":"UTC","ELEMENT_SET_NO":"999","INCLINATION":"53.2133","COUNTRY_CODE":"US","CLASSIFICATION_TYPE":"U","GP_ID":"223429219","RCS_SIZE":"LARGE","REV_AT_EPOCH":"3790","ECCENTRICITY":"0.00018360","TLE_LINE2":"2 52704  53.2133 237.9244 0001836  59.2264 300.8909 15.08847798 37909","MEAN_ELEMENT_THEORY":"SGP4","NORAD_CAT_ID":"52704","OBJECT_NAME":"STARLINK-3999","SEMIMAJOR_AXIS":"6917.857","EPOCH":"2023-01-18T20:50:49.855776","LAUNCH_DATE":"2022-05-18"},{"INCLINATION":"53.2125","TIME_SYSTEM":"UTC","ELEMENT_SET_NO":"999","CENTER_NAME":"EARTH","OBJECT_TYPE":"PAYLOAD","PERIAPSIS":"538.387","BSTAR":"0.00030751000000","APOAPSIS":"541.073","SEMIMAJOR_AXIS":"6917.865","EPOCH":"2023-01-18T20:34:55.871904","LAUNCH_DATE":"2022-05-18","RCS_SIZE":"LARGE","GP_ID":"223456970","CLASSIFICATION_TYPE":"U","REV_AT_EPOCH":"3833","COUNTRY_CODE":"US","NORAD_CAT_ID":"52705","OBJECT_NAME":"STARLINK-3844","ECCENTRICITY":"0.00019410","MEAN_ELEMENT_THEORY":"SGP4","TLE_LINE2":"2 52705  53.2125 237.9681 0001941  58.5218 301.5964 15.08844960 38339","ARG_OF_PERICENTER":"58.5218","FILE":"3754254","MEAN_MOTION_DDOT":"0.0000000000000","MEAN_MOTION_DOT":"0.00004610","RA_OF_ASC_NODE":"237.9681","EPHEMERIS_TYPE":"0","OBJECT_ID":"2022-053BB","TLE_LINE1":"1 52705U 22053BB  23018.85759111  .00004610  00000-0  30751-3 0  9992","MEAN_MOTION":"15.08844960","REF_FRAME":"TEME","DECAY_DATE":null,"MEAN_ANOMALY":"301.5964","SITE":"AFETR","PERIOD":"95.437"},{"OBJECT_ID":"2022-053BC","TLE_LINE1":"1 52706U 22053BC  23018.86126859  .00011052  00000-0  71100-3 0  9992","MEAN_MOTION":"15.08859477","DECAY_DATE":null,"REF_FRAME":"TEME","MEAN_ANOMALY":"283.1470","SITE":"AFETR","PERIOD":"95.436","ARG_OF_PERICENTER":"76.9680","FILE":"3754254","MEAN_MOTION_DDOT":"0.0000000000000","MEAN_MOTION_DOT":"0.00011052","RA_OF_ASC_NODE":"237.9528","EPHEMERIS_TYPE":"0","SEMIMAJOR_AXIS":"6917.821","EPOCH":"2023-01-18T20:40:13.606176","LAUNCH_DATE":"2022-05-18","CLASSIFICATION_TYPE":"U","GP_ID":"223455219","RCS_SIZE":"LARGE","REV_AT_EPOCH":"3833","COUNTRY_CODE":"US","NORAD_CAT_ID":"52706","OBJECT_NAME":"STARLINK-3970","ECCENTRICITY":"0.00014150","TLE_LINE2":"2 52706  53.2125 237.9528 0001415  76.9680 283.1470 15.08859477 38339","MEAN_ELEMENT_THEORY":"SGP4","INCLINATION":"53.2125","TIME_SYSTEM":"UTC","ELEMENT_SET_NO":"999","OBJECT_TYPE":"PAYLOAD","CENTER_NAME":"EARTH","PERIAPSIS":"538.707","BSTAR":"0.00071100000000","APOAPSIS":"540.665"},{"REV_AT_EPOCH":"3840","RCS_SIZE":"LARGE","GP_ID":"223455469","CLASSIFICATION_TYPE":"U","COUNTRY_CODE":"US","NORAD_CAT_ID":"52707","OBJECT_NAME":"STARLINK-4007","TLE_LINE2":"2 52707  53.2132 237.7053 0001941  47.5116 312.6040 15.08869460 38403","MEAN_ELEMENT_THEORY":"SGP4","ECCENTRICITY":"0.00019410","SEMIMAJOR_AXIS":"6917.790","EPOCH":"2023-01-18T22:01:05.868192","LAUNCH_DATE":"2022-05-18","BSTAR":"0.00075388000000","OBJECT_TYPE":"PAYLOAD","CENTER_NAME":"EARTH","PERIAPSIS":"538.313","APOAPSIS":"540.998","INCLINATION":"53.2132","ELEMENT_SET_NO":"999","TIME_SYSTEM":"UTC","MEAN_ANOMALY":"312.6040","SITE":"AFETR","PERIOD":"95.436","OBJECT_ID":"2022-053BD","TLE_LINE1":"1 52707U 22053BD  23018.91742903  .00011740  00000-0  75388-3 0  9999","REF_FRAME":"TEME","DECAY_DATE":null,"MEAN_MOTION":"15.08869460","MEAN_MOTION_DOT":"0.00011740","RA_OF_ASC_NODE":"237.7053","EPHEMERIS_TYPE":"0","FILE":"3754254","ARG_OF_PERICENTER":"47.5116","MEAN_MOTION_DDOT":"0.0000000000000"},{"MEAN_MOTION_DDOT":"0.0000000000000","FILE":"3754108","ARG_OF_PERICENTER":"72.3696","EPHEMERIS_TYPE":"0","RA_OF_ASC_NODE":"237.8433","MEAN_MOTION_DOT":"0.00005521","TLE_LINE1":"1 52708U 22053BE  23018.88430458  .00005521  00000-0  36458-3 0  9990","DECAY_DATE":null,"REF_FRAME":"TEME","MEAN_MOTION":"15.08853963","OBJECT_ID":"2022-053BE","PERIOD":"95.437","MEAN_ANOMALY":"287.7448","SITE":"AFETR","INCLINATION":"53.2141","ELEMENT_SET_NO":"999","TIME_SYSTEM":"UTC","APOAPSIS":"540.671","BSTAR":"0.00036458000000","OBJECT_TYPE":"PAYLOAD","PERIAPSIS":"538.735","CENTER_NAME":"EARTH","LAUNCH_DATE":"2022-05-18","SEMIMAJOR_AXIS":"6917.838","EPOCH":"2023-01-18T21:13:23.915712","NORAD_CAT_ID":"52708","OBJECT_NAME":"STARLINK-3962","MEAN_ELEMENT_THEORY":"SGP4","TLE_LINE2":"2 52708  53.2141 237.8433 0001399  72.3696 287.7448 15.08853963 37913","ECCENTRICITY":"0.00013990","REV_AT_EPOCH":"3791","GP_ID":"223429074","RCS_SIZE":"LARGE","CLASSIFICATION_TYPE":"U","COUNTRY_CODE":"US"},{"TIME_SYSTEM":"UTC","ELEMENT_SET_NO":"999","INCLINATION":"53.2176","APOAPSIS":"540.930","CENTER_NAME":"EARTH","OBJECT_TYPE":"PAYLOAD","PERIAPSIS":"538.513","BSTAR":"0.00023256000000","LAUNCH_DATE":"2022-06-17","SEMIMAJOR_AXIS":"6917.857","EPOCH":"2023-01-18T14:42:31.076352","ECCENTRICITY":"0.00017470","TLE_LINE2":"2 52830  53.2176 139.0550 0001747  74.7374 285.3811 15.08847696 32768","MEAN_ELEMENT_THEORY":"SGP4","NORAD_CAT_ID":"52830","OBJECT_NAME":"STARLINK-4091","COUNTRY_CODE":"US","GP_ID":"223422558","CLASSIFICATION_TYPE":"U","RCS_SIZE":"LARGE","REV_AT_EPOCH":"3276","MEAN_MOTION_DDOT":"0.0000000000000","ARG_OF_PERICENTER":"74.7374","FILE":"3753951","RA_OF_ASC_NODE":"139.0550","EPHEMERIS_TYPE":"0","MEAN_MOTION_DOT":"0.00003416","MEAN_MOTION":"15.08847696","REF_FRAME":"TEME","DECAY_DATE":null,"TLE_LINE1":"1 52830U 22062A   23018.61285968  .00003416  00000-0  23256-3 0  9994","OBJECT_ID":"2022-062A","PERIOD":"95.437","SITE":"AFETR","MEAN_ANOMALY":"285.3811"},{"OBJECT_ID":"2022-062B","MEAN_MOTION":"15.08858500","REF_FRAME":"TEME","DECAY_DATE":null,"TLE_LINE1":"1 52831U 22062B   23018.62390209  .00008668  00000-0  56174-3 0  9990","SITE":"AFETR","MEAN_ANOMALY":"262.4169","PERIOD":"95.436","ARG_OF_PERICENTER":"97.6951","FILE":"3753965","MEAN_MOTION_DDOT":"0.0000000000000","MEAN_MOTION_DOT":"0.00008668","RA_OF_ASC_NODE":"139.0077","EPHEMERIS_TYPE":"0","SEMIMAJOR_AXIS":"6917.824","EPOCH":"2023-01-18T14:58:25.140576","LAUNCH_DATE":"2022-06-17","COUNTRY_CODE":"US","RCS_SIZE":"LARGE","GP_ID":"223426269","CLASSIFICATION_TYPE":"U","REV_AT_EPOCH":"3326","ECCENTRICITY":"0.00011260","TLE_LINE2":"2 52831  53.2159 139.0077 0001126  97.6951 262.4169 15.08858500 33264","MEAN_ELEMENT_THEORY":"SGP4","OBJECT_NAME":"STARLINK-4089","NORAD_CAT_ID":"52831","TIME_SYSTEM":"UTC","ELEMENT_SET_NO":"999","INCLINATION":"53.2159","OBJECT_TYPE":"PAYLOAD","PERIAPSIS":"538.910","CENTER_NAME":"EARTH","BSTAR":"0.00056174000000","APOAPSIS":"540.468"}];
